{"spkid": "20892304", "covariance": {"data": [["4.573071129684902E-15", "-4.831614271008538E-15", "9.559826358901373E-14", "-1.434812576838041E-14", "4.179163029774715E-13", "1.029879956435043E-13"], ["-4.831614271008538E-15", "5.106643603940754E-15", "-8.905050710256137E-14", "1.506532040741662E-14", "-4.350894735988475E-13", "-1.083303370662032E-13"], ["9.559826358901373E-14", "-8.905050710256137E-14", "5.358767080770705E-10", "-3.254785456163291E-11", "4.025230790818038E-10", "4.604342312864307E-11"], ["-1.434812576838041E-14", "1.506532040741662E-14", "-3.254785456163291E-11", "8.996778185991528E-11", "-1.100285279964672E-10", "-2.312226932443394E-11"], ["4.179163029774715E-13", "-4.350894735988475E-13", "4.025230790818038E-10", "-1.100285279964672E-10", "4.164571211611676E-10", "6.085825455390125E-11"], ["1.029879956435043E-13", "-1.083303370662032E-13", "4.604342312864307E-11", "-2.312226932443394E-11", "6.085825455390125E-11", "4.472521942215564E-11"]], "elements": [{"title": "eccentricity", "value": ".2000263874568474", "units": null, "name": "e", "sigma": 6.76244861694705e-08, "label": "e"}, {"label": "q", "value": ".8543746938473638", "title": "perihelion distance", "units": "au", "sigma": 7.14607836784677e-08, "name": "q"}, {"label": "tp", "value": "2458441.251766266868", "title": "time of perihelion passage", "units": "TDB", "sigma": 2.31490109524591e-05, "name": "tp"}, {"value": "207.7804897757026", "title": "longitude of the ascending node", "units": "deg", "name": "om", "sigma": 9.4851347834343e-06, "label": "node"}, {"label": "peri", "name": "w", "sigma": 2.04072810820346e-05, "value": "108.647395462957", "title": "argument of perihelion", "units": "deg"}, {"label": "i", "units": "deg", "title": "inclination", "value": "11.80631996978561", "name": "i", "sigma": 6.68769163629392e-06}], "labels": ["e", "q", "tp", "node", "peri", "i"], "epoch": "2458489.5"}, "elements": [{"label": "e", "name": "e", "sigma": "6.7623E-8", "units": null, "title": "eccentricity", "value": ".2001767947469091"}, {"name": "a", "sigma": "1.7503E-9", "title": "semi-major axis", "value": "1.068032989243242", "units": "au", "label": "a"}, {"sigma": "7.1524E-8", "name": "q", "title": "perihelion distance", "value": ".85423756877257", "units": "au", "label": "q"}, {"label": "i", "units": "deg", "value": "11.80667019780224", "title": "inclination; angle with respect to x-y ecliptic plane", "sigma": "6.6876E-6", "name": "i"}, {"label": "node", "name": "om", "sigma": "9.4832E-6", "units": "deg", "title": "longitude of the ascending node", "value": "207.7440739824916"}, {"title": "argument of perihelion", "value": "108.6724234630452", "units": "deg", "sigma": "2.0416E-5", "name": "w", "label": "peri"}, {"label": "M", "sigma": "2.3776E-5", "name": "ma", "units": "deg", "title": "mean anomaly", "value": "304.0120810298405"}, {"label": "tp", "name": "tp", "sigma": "2.6705E-5", "value": "2461263.199958369603", "title": "time of perihelion passage", "units": "TDB"}, {"title": "sidereal orbital period", "value": "403.1581353307201", "units": "d", "name": "per", "sigma": "9.9104E-7", "label": "period"}, {"sigma": "2.195E-9", "name": "n", "units": "deg/d", "value": ".8929498587562508", "title": "mean motion", "label": "n"}, {"label": "Q", "units": "au", "title": "aphelion distance", "value": "1.281828409713915", "name": "ad", "sigma": "2.1007E-9"}], "epoch": "2461200.5"}